( pcb2gcode 3.0.3 )
( Software-independent Gcode )

G94 ( Inches per minute feed rate. )
G20 ( Units == INCHES. )

G90 ( Absolute coordinates. )
G00 S10000 ( RPM spindle speed. )
G64 P0.00040 ( set maximum deviation from commanded toolpath )
G01 F4.72441 ( Feedrate. )


G00 Z0.19685 (Retract to tool change height)
T1
M5      (Spindle stop.)
G04 P1.00000 (Wait for spindle to stop)
(MSG, Change tool bit to mill diameter 0.00394in)
M6      (Tool change.)
M0      (Temporary machine stop.)
M3 ( Spindle on clockwise. )
G04 P1.00000 (Wait for spindle to get up to speed)
G04 P0 ( dwell for no time -- G64 should not smooth over this point )
G00 Z0.19685 ( retract )

G00 X0.38366 Y0.62468 ( rapid move to begin. )
G01 F2.36220
( Mill infeed pass 1/1 )
G01 Z-0.00236
G04 P0 ( dwell for no time -- G64 should not smooth over this point )
G01 F4.72441
G01 X0.38366 Y0.62468
G01 X0.38393 Y0.62029
G01 X0.38463 Y0.61613
G01 X0.38586 Y0.61169
G01 X0.38733 Y0.60797
G01 X0.38926 Y0.60424
G01 X0.39167 Y0.60055
G01 X0.39460 Y0.59699
G01 X0.39760 Y0.59405
G01 X0.40072 Y0.59154
G01 X0.40335 Y0.58983
G01 X0.40335 Y0.32460
G01 X0.40352 Y0.32227
G01 X0.40401 Y0.31970
G01 X0.40480 Y0.31721
G01 X0.40588 Y0.31483
G01 X0.40725 Y0.31260
G01 X0.40871 Y0.31073
G01 X0.41055 Y0.30887
G01 X0.41247 Y0.30734
G01 X0.41547 Y0.30556
G01 X0.41841 Y0.30438
G01 X0.42180 Y0.30359
G01 X0.42500 Y0.30335
G01 X0.85350 Y0.30335
G01 X0.85366 Y0.30166
G01 X0.85437 Y0.29875
G01 X0.85570 Y0.29550
G01 X0.85755 Y0.29251
G01 X0.86008 Y0.28963
G01 X0.86282 Y0.28742
G01 X0.86587 Y0.28569
G01 X0.86897 Y0.28452
G01 X0.87210 Y0.28386
G01 X0.87561 Y0.28368
G01 X0.87920 Y0.28408
G01 X0.88259 Y0.28504
G01 X0.88549 Y0.28638
G01 X0.88850 Y0.28839
G01 X0.89106 Y0.29079
G01 X0.89306 Y0.29338
G01 X0.89448 Y0.29587
G01 X0.89556 Y0.29853
G01 X0.89631 Y0.30150
G01 X0.89663 Y0.30431
G01 X0.89665 Y0.34488
G01 X0.89617 Y0.34920
G01 X0.89524 Y0.35238
G01 X0.89372 Y0.35555
G01 X0.89192 Y0.35819
G01 X0.88966 Y0.36061
G01 X0.88690 Y0.36277
G01 X0.88400 Y0.36437
G01 X0.88091 Y0.36551
G01 X0.87743 Y0.36620
G01 X0.87522 Y0.36633
G01 X0.87302 Y0.36624
G01 X0.87083 Y0.36593
G01 X0.86870 Y0.36540
G01 X0.86643 Y0.36457
G01 X0.86445 Y0.36359
G01 X0.86242 Y0.36230
G01 X0.86069 Y0.36093
G01 X0.85897 Y0.35924
G01 X0.85757 Y0.35753
G01 X0.85615 Y0.35533
G01 X0.85516 Y0.35336
G01 X0.85438 Y0.35129
G01 X0.85377 Y0.34896
G01 X0.85344 Y0.34665
G01 X0.44665 Y0.34665
G01 X0.44665 Y0.58981
G01 X0.45080 Y0.59271
G01 X0.45334 Y0.59491
G01 X0.45552 Y0.59712
G01 X0.45759 Y0.59956
G01 X0.45932 Y0.60195
G01 X0.46107 Y0.60481
G01 X0.46248 Y0.60756
G01 X0.46357 Y0.61014
G01 X0.46465 Y0.61331
G01 X0.46547 Y0.61657
G01 X0.46597 Y0.61948
G01 X0.46628 Y0.62282
G01 X0.46633 Y0.62577
G01 X0.46616 Y0.62886
G01 X0.46571 Y0.63218
G01 X0.46513 Y0.63492
G01 X0.46412 Y0.63834
G01 X0.46196 Y0.64351
G01 X0.45883 Y0.64875
G01 X0.45690 Y0.65129
G01 X0.45479 Y0.65365
G01 X0.45065 Y0.65741
G01 X0.44788 Y0.65943
G01 X0.44536 Y0.66097
G01 X0.44225 Y0.66257
G01 X0.43946 Y0.66372
G01 X0.43410 Y0.66532
G01 X0.42807 Y0.66622
G01 X0.42472 Y0.66634
G01 X0.41900 Y0.66590
G01 X0.41549 Y0.66522
G01 X0.41014 Y0.66357
G01 X0.40687 Y0.66215
G01 X0.40421 Y0.66073
G01 X0.39957 Y0.65759
G01 X0.39502 Y0.65345
G01 X0.39130 Y0.64894
G01 X0.38905 Y0.64540
G01 X0.38716 Y0.64163
G01 X0.38560 Y0.63752
G01 X0.38454 Y0.63345
G01 X0.38385 Y0.62889
G01 X0.38366 Y0.62468
G04 P0 ( dwell for no time -- G64 should not smooth over this point )
G00 Z0.19685 ( retract )

G00 X0.38367 Y1.12529 ( rapid move to begin. )
G01 F2.36220
( Mill infeed pass 1/1 )
G01 Z-0.00236
G04 P0 ( dwell for no time -- G64 should not smooth over this point )
G01 F4.72441
G01 X0.38367 Y1.12529
G01 X0.38406 Y1.13073
G01 X0.38518 Y1.13608
G01 X0.38692 Y1.14108
G01 X0.38924 Y1.14574
G01 X0.39204 Y1.14994
G01 X0.39561 Y1.15406
G01 X0.39969 Y1.15768
G01 X0.40335 Y1.16015
G01 X0.40335 Y1.45040
G01 X0.40365 Y1.45361
G01 X0.40437 Y1.45657
G01 X0.40550 Y1.45941
G01 X0.40686 Y1.46182
G01 X0.40843 Y1.46394
G01 X0.41023 Y1.46583
G01 X0.41225 Y1.46750
G01 X0.41428 Y1.46881
G01 X0.41640 Y1.46987
G01 X0.41909 Y1.47083
G01 X0.42164 Y1.47139
G01 X0.42421 Y1.47164
G01 X0.60882 Y1.47165
G01 X0.60867 Y1.47549
G01 X0.60881 Y1.47844
G01 X0.60923 Y1.48183
G01 X0.61059 Y1.48748
G01 X0.61158 Y1.49026
G01 X0.61294 Y1.49332
G01 X0.61435 Y1.49592
G01 X0.61607 Y1.49862
G01 X0.61992 Y1.50335
G01 X0.62419 Y1.50729
G01 X0.62656 Y1.50905
G01 X0.62945 Y1.51086
G01 X0.63469 Y1.51340
G01 X0.63771 Y1.51447
G01 X0.64056 Y1.51524
G01 X0.64650 Y1.51619
G01 X0.64945 Y1.51633
G01 X0.65280 Y1.51624
G01 X0.65573 Y1.51594
G01 X0.65889 Y1.51537
G01 X0.66473 Y1.51362
G01 X0.67000 Y1.51118
G01 X0.67253 Y1.50966
G01 X0.67514 Y1.50781
G01 X0.67969 Y1.50375
G01 X0.68347 Y1.49925
G01 X0.68657 Y1.49426
G01 X0.68893 Y1.48887
G01 X0.69051 Y1.48321
G01 X0.69127 Y1.47738
G01 X0.69119 Y1.47157
G01 X0.69085 Y1.46864
G01 X0.69023 Y1.46550
G01 X0.68870 Y1.46048
G01 X0.68645 Y1.45550
G01 X0.68356 Y1.45087
G01 X0.68011 Y1.44668
G01 X0.67709 Y1.44378
G01 X0.67427 Y1.44154
G01 X0.67111 Y1.43946
G01 X0.66778 Y1.43770
G01 X0.66575 Y1.43516
G01 X0.66281 Y1.43255
G01 X0.66010 Y1.43085
G01 X0.65686 Y1.42947
G01 X0.65345 Y1.42863
G01 X0.65000 Y1.42835
G01 X0.44665 Y1.42835
G01 X0.44665 Y1.16019
G01 X0.45080 Y1.15729
G01 X0.45508 Y1.15335
G01 X0.45880 Y1.14879
G01 X0.46183 Y1.14376
G01 X0.46412 Y1.13834
G01 X0.46509 Y1.13506
G01 X0.46571 Y1.13218
G01 X0.46632 Y1.12618
G01 X0.46629 Y1.12298
G01 X0.46604 Y1.12004
G01 X0.46514 Y1.11513
G01 X0.46355 Y1.11009
G01 X0.46157 Y1.10573
G01 X0.45871 Y1.10108
G01 X0.45537 Y1.09697
G01 X0.45161 Y1.09337
G01 X0.44756 Y1.09036
G01 X0.44258 Y1.08759
G01 X0.43789 Y1.08573
G01 X0.43286 Y1.08442
G01 X0.42760 Y1.08375
G01 X0.42214 Y1.08376
G01 X0.41674 Y1.08450
G01 X0.41187 Y1.08580
G01 X0.40742 Y1.08759
G01 X0.40244 Y1.09036
G01 X0.39838 Y1.09337
G01 X0.39462 Y1.09697
G01 X0.39143 Y1.10088
G01 X0.38875 Y1.10514
G01 X0.38651 Y1.10994
G01 X0.38492 Y1.11489
G01 X0.38399 Y1.11985
G01 X0.38367 Y1.12529
G04 P0 ( dwell for no time -- G64 should not smooth over this point )
G00 Z0.19685 ( retract )

G00 X0.60866 Y1.17490 ( rapid move to begin. )
G01 F2.36220
( Mill infeed pass 1/1 )
G01 Z-0.00236
G04 P0 ( dwell for no time -- G64 should not smooth over this point )
G01 F4.72441
G01 X0.60866 Y1.17490
G01 X0.60883 Y1.17869
G01 X0.60941 Y1.18284
G01 X0.61042 Y1.18692
G01 X0.61183 Y1.19087
G01 X0.61345 Y1.19430
G01 X0.61569 Y1.19806
G01 X0.61795 Y1.20111
G01 X0.62076 Y1.20422
G01 X0.62356 Y1.20677
G01 X0.62691 Y1.20929
G01 X0.63015 Y1.21126
G01 X0.63392 Y1.21308
G01 X0.63748 Y1.21439
G01 X0.64154 Y1.21546
G01 X0.64570 Y1.21611
G01 X0.64989 Y1.21634
G01 X0.65389 Y1.21615
G01 X0.65804 Y1.21555
G01 X0.66191 Y1.21458
G01 X0.66586 Y1.21317
G01 X0.66948 Y1.21146
G01 X0.67290 Y1.20942
G01 X0.67627 Y1.20691
G01 X0.67937 Y1.20409
G01 X0.68191 Y1.20128
G01 X0.68441 Y1.19791
G01 X0.68636 Y1.19466
G01 X0.68817 Y1.19087
G01 X0.68958 Y1.18692
G01 X0.69055 Y1.18303
G01 X0.69113 Y1.17910
G01 X0.69134 Y1.17510
G01 X0.69117 Y1.17131
G01 X0.69059 Y1.16716
G01 X0.68958 Y1.16308
G01 X0.68817 Y1.15913
G01 X0.68655 Y1.15570
G01 X0.68431 Y1.15194
G01 X0.68205 Y1.14889
G01 X0.67924 Y1.14578
G01 X0.67644 Y1.14322
G01 X0.67309 Y1.14071
G01 X0.66985 Y1.13874
G01 X0.66607 Y1.13692
G01 X0.66252 Y1.13560
G01 X0.65846 Y1.13454
G01 X0.65430 Y1.13389
G01 X0.65011 Y1.13366
G01 X0.64611 Y1.13385
G01 X0.64196 Y1.13445
G01 X0.63809 Y1.13542
G01 X0.63414 Y1.13683
G01 X0.63052 Y1.13854
G01 X0.62710 Y1.14058
G01 X0.62373 Y1.14308
G01 X0.62063 Y1.14591
G01 X0.61809 Y1.14872
G01 X0.61559 Y1.15209
G01 X0.61364 Y1.15534
G01 X0.61183 Y1.15913
G01 X0.61042 Y1.16308
G01 X0.60945 Y1.16697
G01 X0.60887 Y1.17090
G01 X0.60866 Y1.17490
G04 P0 ( dwell for no time -- G64 should not smooth over this point )
G00 Z0.19685 ( retract )

G00 X0.63229 Y1.17522 ( rapid move to begin. )
G01 F2.36220
( Mill infeed pass 1/1 )
G01 Z-0.00236
G04 P0 ( dwell for no time -- G64 should not smooth over this point )
G01 F4.72441
G01 X0.63229 Y1.17522
G01 X0.63269 Y1.17875
G01 X0.63380 Y1.18217
G01 X0.63556 Y1.18526
G01 X0.63773 Y1.18777
G01 X0.64053 Y1.18997
G01 X0.64374 Y1.19157
G01 X0.64718 Y1.19249
G01 X0.65049 Y1.19270
G01 X0.65398 Y1.19226
G01 X0.65712 Y1.19121
G01 X0.66019 Y1.18949
G01 X0.66271 Y1.18734
G01 X0.66492 Y1.18455
G01 X0.66652 Y1.18138
G01 X0.66742 Y1.17818
G01 X0.66771 Y1.17468
G01 X0.66734 Y1.17138
G01 X0.66627 Y1.16799
G01 X0.66452 Y1.16485
G01 X0.66217 Y1.16213
G01 X0.65935 Y1.15996
G01 X0.65638 Y1.15848
G01 X0.65300 Y1.15754
G01 X0.64969 Y1.15729
G01 X0.64620 Y1.15770
G01 X0.64304 Y1.15871
G01 X0.63996 Y1.16041
G01 X0.63741 Y1.16254
G01 X0.63518 Y1.16530
G01 X0.63352 Y1.16849
G01 X0.63256 Y1.17191
G01 X0.63229 Y1.17522
G04 P0 ( dwell for no time -- G64 should not smooth over this point )
G00 Z0.19685 ( retract )

G00 X0.63230 Y1.47446 ( rapid move to begin. )
G01 F2.36220
( Mill infeed pass 1/1 )
G01 Z-0.00236
G04 P0 ( dwell for no time -- G64 should not smooth over this point )
G01 F4.72441
G01 X0.63230 Y1.47446
G01 X0.63236 Y1.47662
G01 X0.63269 Y1.47875
G01 X0.63327 Y1.48083
G01 X0.63411 Y1.48282
G01 X0.63518 Y1.48471
G01 X0.63744 Y1.48749
G01 X0.64022 Y1.48977
G01 X0.64341 Y1.49144
G01 X0.64507 Y1.49201
G01 X0.64833 Y1.49263
G01 X0.65009 Y1.49271
G01 X0.65185 Y1.49262
G01 X0.65510 Y1.49196
G01 X0.65676 Y1.49137
G01 X0.65835 Y1.49062
G01 X0.66111 Y1.48879
G01 X0.66243 Y1.48762
G01 X0.66362 Y1.48632
G01 X0.66547 Y1.48362
G01 X0.66680 Y1.48062
G01 X0.66758 Y1.47715
G01 X0.66771 Y1.47536
G01 X0.66742 Y1.47178
G01 X0.66700 Y1.47002
G01 X0.66566 Y1.46673
G01 X0.66491 Y1.46558
G01 X0.66366 Y1.46679
G01 X0.66040 Y1.46899
G01 X0.65748 Y1.47031
G01 X0.65451 Y1.47117
G01 X0.65040 Y1.47165
G01 X0.63263 Y1.47165
G01 X0.63230 Y1.47446
G04 P0 ( dwell for no time -- G64 should not smooth over this point )
G00 Z0.19685 ( retract )

G00 X1.03229 Y1.47518 ( rapid move to begin. )
G01 F2.36220
( Mill infeed pass 1/1 )
G01 Z-0.00236
G04 P0 ( dwell for no time -- G64 should not smooth over this point )
G01 F4.72441
G01 X1.03229 Y1.47518
G01 X1.03269 Y1.47875
G01 X1.03380 Y1.48217
G01 X1.03556 Y1.48526
G01 X1.03770 Y1.48774
G01 X1.04026 Y1.48979
G01 X1.04341 Y1.49144
G01 X1.04686 Y1.49243
G01 X1.05045 Y1.49271
G01 X1.05402 Y1.49225
G01 X1.05742 Y1.49108
G01 X1.06048 Y1.48928
G01 X1.06296 Y1.48707
G01 X1.06509 Y1.48428
G01 X1.06655 Y1.48130
G01 X1.06747 Y1.47791
G01 X1.06771 Y1.47460
G01 X1.06727 Y1.47107
G01 X1.06612 Y1.46766
G01 X1.06433 Y1.46459
G01 X1.06217 Y1.46213
G01 X1.05959 Y1.46011
G01 X1.05642 Y1.45849
G01 X1.05300 Y1.45754
G01 X1.04969 Y1.45729
G01 X1.04620 Y1.45770
G01 X1.04308 Y1.45870
G01 X1.04019 Y1.46025
G01 X1.03744 Y1.46251
G01 X1.03518 Y1.46530
G01 X1.03354 Y1.46846
G01 X1.03261 Y1.47164
G01 X1.03229 Y1.47518
G04 P0 ( dwell for no time -- G64 should not smooth over this point )
G00 Z0.19685 ( retract )

G00 X1.00866 Y1.47490 ( rapid move to begin. )
G01 F2.36220
( Mill infeed pass 1/1 )
G01 Z-0.00236
G04 P0 ( dwell for no time -- G64 should not smooth over this point )
G01 F4.72441
G01 X1.00866 Y1.47490
G01 X1.00889 Y1.47070
G01 X1.00950 Y1.46675
G01 X1.01054 Y1.46268
G01 X1.01184 Y1.45912
G01 X1.01364 Y1.45534
G01 X1.01582 Y1.45175
G01 X1.01836 Y1.44840
G01 X1.02093 Y1.44561
G01 X1.02405 Y1.44282
G01 X1.02746 Y1.44035
G01 X1.03109 Y1.43824
G01 X1.03453 Y1.43667
G01 X1.03850 Y1.43530
G01 X1.04218 Y1.43441
G01 X1.04633 Y1.43383
G01 X1.05012 Y1.43366
G01 X1.05430 Y1.43389
G01 X1.05845 Y1.43454
G01 X1.06252 Y1.43560
G01 X1.06608 Y1.43692
G01 X1.06965 Y1.43864
G01 X1.07308 Y1.44071
G01 X1.07644 Y1.44322
G01 X1.07924 Y1.44578
G01 X1.08205 Y1.44889
G01 X1.08453 Y1.45228
G01 X1.08656 Y1.45571
G01 X1.08825 Y1.45933
G01 X1.08964 Y1.46329
G01 X1.09055 Y1.46698
G01 X1.09115 Y1.47112
G01 X1.09134 Y1.47510
G01 X1.09111 Y1.47929
G01 X1.09050 Y1.48325
G01 X1.08946 Y1.48732
G01 X1.08816 Y1.49088
G01 X1.08626 Y1.49484
G01 X1.08418 Y1.49825
G01 X1.08164 Y1.50160
G01 X1.07893 Y1.50452
G01 X1.07594 Y1.50718
G01 X1.07238 Y1.50975
G01 X1.06891 Y1.51176
G01 X1.06529 Y1.51340
G01 X1.06150 Y1.51470
G01 X1.05763 Y1.51562
G01 X1.05367 Y1.51617
G01 X1.04988 Y1.51634
G01 X1.04570 Y1.51611
G01 X1.04154 Y1.51546
G01 X1.03769 Y1.51446
G01 X1.03393 Y1.51309
G01 X1.03035 Y1.51136
G01 X1.02692 Y1.50929
G01 X1.02356 Y1.50677
G01 X1.02076 Y1.50422
G01 X1.01782 Y1.50095
G01 X1.01547 Y1.49772
G01 X1.01344 Y1.49429
G01 X1.01175 Y1.49067
G01 X1.01030 Y1.48652
G01 X1.00941 Y1.48284
G01 X1.00884 Y1.47888
G01 X1.00866 Y1.47509
G01 X1.00869 Y1.17344
G01 X1.00881 Y1.17848
G01 X1.00954 Y1.18345
G01 X1.01074 Y1.18793
G01 X1.01261 Y1.19262
G01 X1.01511 Y1.19717
G01 X1.01879 Y1.20210
G01 X1.02295 Y1.20625
G01 X1.02742 Y1.20962
G01 X1.03256 Y1.21248
G01 X1.03832 Y1.21465
G01 X1.04379 Y1.21586
G01 X1.04965 Y1.21633
G01 X1.05511 Y1.21602
G01 X1.06047 Y1.21499
G01 X1.06565 Y1.21326
G01 X1.07055 Y1.21086
G01 X1.07510 Y1.20784
G01 X1.07921 Y1.20425
G01 X1.08281 Y1.20014
G01 X1.08515 Y1.19665
G01 X1.42500 Y1.19665
G01 X1.42749 Y1.19651
G01 X1.43006 Y1.19605
G01 X1.43257 Y1.19528
G01 X1.43495 Y1.19423
G01 X1.43740 Y1.19275
G01 X1.43945 Y1.19113
G01 X1.44130 Y1.18925
G01 X1.44313 Y1.18684
G01 X1.44443 Y1.18455
G01 X1.44557 Y1.18174
G01 X1.44624 Y1.17919
G01 X1.44660 Y1.17644
G01 X1.44665 Y1.01017
G01 X1.44893 Y1.00870
G01 X1.45222 Y1.00611
G01 X1.45496 Y1.00348
G01 X1.45769 Y1.00030
G01 X1.45987 Y0.99720
G01 X1.46194 Y0.99355
G01 X1.46348 Y0.99009
G01 X1.46481 Y0.98612
G01 X1.46566 Y0.98243
G01 X1.46617 Y0.97869
G01 X1.46634 Y0.97490
G01 X1.46611 Y0.97071
G01 X1.46555 Y0.96697
G01 X1.46453 Y0.96290
G01 X1.46325 Y0.95933
G01 X1.46156 Y0.95571
G01 X1.46008 Y0.95313
G01 X1.45819 Y0.95036
G01 X1.45425 Y0.94579
G01 X1.45190 Y0.94361
G01 X1.44959 Y0.94177
G01 X1.44444 Y0.93852
G01 X1.43914 Y0.93615
G01 X1.43633 Y0.93525
G01 X1.43306 Y0.93446
G01 X1.42975 Y0.93394
G01 X1.42681 Y0.93370
G01 X1.42361 Y0.93369
G01 X1.42067 Y0.93389
G01 X1.41473 Y0.93496
G01 X1.41152 Y0.93592
G01 X1.40878 Y0.93698
G01 X1.40624 Y0.93816
G01 X1.40332 Y0.93981
G01 X1.40053 Y0.94168
G01 X1.39821 Y0.94351
G01 X1.39393 Y0.94774
G01 X1.39215 Y0.94990
G01 X1.39014 Y0.95277
G01 X1.38865 Y0.95532
G01 X1.38717 Y0.95833
G01 X1.38608 Y0.96107
G01 X1.38512 Y0.96412
G01 X1.38437 Y0.96740
G01 X1.38388 Y0.97072
G01 X1.38367 Y0.97424
G01 X1.38374 Y0.97760
G01 X1.38409 Y0.98094
G01 X1.38471 Y0.98425
G01 X1.38555 Y0.98734
G01 X1.38668 Y0.99050
G01 X1.38807 Y0.99356
G01 X1.38970 Y0.99650
G01 X1.39156 Y0.99930
G01 X1.39364 Y1.00194
G01 X1.39605 Y1.00451
G01 X1.39842 Y1.00666
G01 X1.40142 Y1.00895
G01 X1.40335 Y1.01018
G01 X1.40335 Y1.15335
G01 X1.08518 Y1.15335
G01 X1.08242 Y1.14935
G01 X1.07830 Y1.14487
G01 X1.07374 Y1.14116
G01 X1.06870 Y1.13814
G01 X1.06328 Y1.13586
G01 X1.05787 Y1.13442
G01 X1.05203 Y1.13372
G01 X1.04615 Y1.13384
G01 X1.04133 Y1.13458
G01 X1.03670 Y1.13586
G01 X1.03204 Y1.13777
G01 X1.02744 Y1.14036
G01 X1.02340 Y1.14336
G01 X1.02003 Y1.14653
G01 X1.01679 Y1.15039
G01 X1.01416 Y1.15441
G01 X1.01199 Y1.15876
G01 X1.01029 Y1.16351
G01 X1.00923 Y1.16819
G01 X1.00869 Y1.17344
G04 P0 ( dwell for no time -- G64 should not smooth over this point )
G00 Z0.19685 ( retract )

G00 X1.03229 Y1.17518 ( rapid move to begin. )
G01 F2.36220
( Mill infeed pass 1/1 )
G01 Z-0.00236
G04 P0 ( dwell for no time -- G64 should not smooth over this point )
G01 F4.72441
G01 X1.03229 Y1.17518
G01 X1.03236 Y1.17342
G01 X1.03296 Y1.17016
G01 X1.03427 Y1.16685
G01 X1.03518 Y1.16530
G01 X1.03744 Y1.16251
G01 X1.03875 Y1.16132
G01 X1.04147 Y1.15948
G01 X1.04408 Y1.15831
G01 X1.04686 Y1.15757
G01 X1.05010 Y1.15729
G01 X1.05295 Y1.15754
G01 X1.05609 Y1.15837
G01 X1.05869 Y1.15957
G01 X1.05937 Y1.16003
G01 X1.05805 Y1.16153
G01 X1.05676 Y1.16334
G01 X1.05558 Y1.16543
G01 X1.05470 Y1.16747
G01 X1.05389 Y1.17019
G01 X1.05351 Y1.17237
G01 X1.05335 Y1.17477
G01 X1.05346 Y1.17719
G01 X1.05379 Y1.17936
G01 X1.05435 Y1.18151
G01 X1.05520 Y1.18376
G01 X1.05620 Y1.18574
G01 X1.05739 Y1.18759
G01 X1.05936 Y1.18995
G01 X1.05835 Y1.19062
G01 X1.05510 Y1.19196
G01 X1.05185 Y1.19261
G01 X1.04833 Y1.19263
G01 X1.04507 Y1.19201
G01 X1.04341 Y1.19144
G01 X1.04022 Y1.18977
G01 X1.03744 Y1.18749
G01 X1.03626 Y1.18618
G01 X1.03442 Y1.18343
G01 X1.03306 Y1.18019
G01 X1.03239 Y1.17694
G01 X1.03229 Y1.17518
G04 P0 ( dwell for no time -- G64 should not smooth over this point )
G00 Z0.19685 ( retract )

G00 X0.95335 Y0.34468 ( rapid move to begin. )
G01 F2.36220
( Mill infeed pass 1/1 )
G01 Z-0.00236
G04 P0 ( dwell for no time -- G64 should not smooth over this point )
G01 F4.72441
G01 X0.95335 Y0.34468
G01 X0.95366 Y0.34834
G01 X0.95447 Y0.35155
G01 X0.95570 Y0.35450
G01 X0.95755 Y0.35749
G01 X0.95985 Y0.36015
G01 X0.96282 Y0.36258
G01 X0.96588 Y0.36432
G01 X0.96918 Y0.36553
G01 X0.97232 Y0.36617
G01 X0.97477 Y0.36634
G01 X0.97697 Y0.36625
G01 X0.97916 Y0.36593
G01 X0.98129 Y0.36540
G01 X0.98337 Y0.36465
G01 X0.98573 Y0.36349
G01 X0.98775 Y0.36218
G01 X0.98946 Y0.36080
G01 X0.99103 Y0.35924
G01 X0.99255 Y0.35736
G01 X0.99375 Y0.35551
G01 X0.99476 Y0.35354
G01 X0.99555 Y0.35149
G01 X0.99614 Y0.34937
G01 X0.99655 Y0.34665
G01 X1.40335 Y0.34665
G01 X1.40335 Y0.73986
G01 X1.39941 Y0.74254
G01 X1.39716 Y0.74445
G01 X1.39488 Y0.74669
G01 X1.39120 Y0.75121
G01 X1.38804 Y0.75649
G01 X1.38579 Y0.76192
G01 X1.38433 Y0.76762
G01 X1.38369 Y0.77346
G01 X1.38389 Y0.77933
G01 X1.38492 Y0.78512
G01 X1.38676 Y0.79070
G01 X1.38917 Y0.79561
G01 X1.39245 Y0.80048
G01 X1.39639 Y0.80483
G01 X1.40058 Y0.80835
G01 X1.40556 Y0.81147
G01 X1.41092 Y0.81386
G01 X1.41617 Y0.81538
G01 X1.42199 Y0.81622
G01 X1.42787 Y0.81623
G01 X1.43368 Y0.81541
G01 X1.43894 Y0.81391
G01 X1.44432 Y0.81154
G01 X1.44931 Y0.80843
G01 X1.45360 Y0.80484
G01 X1.45651 Y0.80175
G01 X1.45918 Y0.79825
G01 X1.46136 Y0.79465
G01 X1.46325 Y0.79068
G01 X1.46464 Y0.78670
G01 X1.46563 Y0.78262
G01 X1.46619 Y0.77846
G01 X1.46631 Y0.77362
G01 X1.46583 Y0.76859
G01 X1.46464 Y0.76328
G01 X1.46301 Y0.75876
G01 X1.46054 Y0.75390
G01 X1.45745 Y0.74940
G01 X1.45409 Y0.74563
G01 X1.45030 Y0.74231
G01 X1.44665 Y0.73985
G01 X1.44665 Y0.32460
G01 X1.44617 Y0.32049
G01 X1.44501 Y0.31675
G01 X1.44319 Y0.31327
G01 X1.44049 Y0.30988
G01 X1.43749 Y0.30732
G01 X1.43389 Y0.30525
G01 X1.42976 Y0.30388
G01 X1.42540 Y0.30335
G01 X0.99651 Y0.30335
G01 X0.99638 Y0.30189
G01 X0.99575 Y0.29916
G01 X0.99445 Y0.29581
G01 X0.99279 Y0.29298
G01 X0.99085 Y0.29057
G01 X0.98866 Y0.28852
G01 X0.98570 Y0.28650
G01 X0.98318 Y0.28527
G01 X0.98026 Y0.28431
G01 X0.97672 Y0.28373
G01 X0.97342 Y0.28372
G01 X0.97016 Y0.28421
G01 X0.96701 Y0.28519
G01 X0.96405 Y0.28664
G01 X0.96151 Y0.28839
G01 X0.95909 Y0.29064
G01 X0.95691 Y0.29342
G01 X0.95528 Y0.29640
G01 X0.95409 Y0.29972
G01 X0.95343 Y0.30351
G01 X0.95335 Y0.34468

G04 P0 ( dwell for no time -- G64 should not smooth over this point )
G00 Z0.196850 ( retract )

M5 ( Spindle off. )
G04 P1.000000
M9 ( Coolant off. )
M2 ( Program end. )

